KUIPER-00203            
1 67773U 26030K   26052.58335648  .00057624  00000+0  17554-2 0  9995
2 67773  51.8797 296.8882 0012222  15.4415  91.0371 15.33355436  1304
KUIPER-00205            
1 67774U 26030L   26052.58335648  .00058636  00000+0  16677-2 0  9995
2 67774  51.8811 296.7526 0001538 341.8009 192.8541 15.35578513  1808
KUIPER-00208            
1 67775U 26030M   26052.58335648  .00058607  00000+0  18165-2 0  9998
2 67775  51.8831 296.9247 0014716  15.8209  76.1571 15.32766014  2366
KUIPER-00209            
1 67776U 26030N   26052.58335648  .00058894  00000+0  18259-2 0  9991
2 67776  51.8824 296.9123 0012524  17.0680  80.2289 15.32782408  2013
KUIPER-00213            
1 67777U 26030P   26052.58335648  .00059540  00000+0  18387-2 0  9993
2 67777  51.8806 296.9100 0014097  16.2794  80.2034 15.32882515  2527
KUIPER-00214            
1 67778U 26030Q   26052.58335648  .00058379  00000+0  16374-2 0  9997
2 67778  51.8846 296.7187 0002076 147.1412  45.0026 15.36016609  2426
KUIPER-00215            
1 67779U 26030R   26052.58335648  .00057416  00000+0  17275-2 0  9990
2 67779  51.8838 296.8670 0009819  12.3023 108.0702 15.33775289  1309
KUIPER-00218            
1 67780U 26030S   26052.58335648  .00056102  00000+0  16529-2 0  9994
2 67780  51.8831 296.8217 0006051   9.6430 132.1560 15.34476721  1396
KUIPER-00220            
1 67781U 26030T   26052.58335648  .00057488  00000+0  17183-2 0  9990
2 67781  51.8808 296.8473 0007749  10.8418 116.9743 15.33999749  2146
KUIPER-00222            
1 67782U 26030U   26052.58335648  .00063939  00000+0  19995-2 0  9992
2 67782  51.8806 296.9339 0016425  16.2099  68.2066 15.32416022  2473
KUIPER-00223            
1 67783U 26030V   26052.58335648  .00057270  00000+0  17369-2 0  9997
2 67783  51.8825 296.8827 0011903  12.1600  99.5577 15.33502973  2291
KUIPER-00225            
1 67784U 26030W   26052.58335648  .00058963  00000+0  17015-2 0  9996
2 67784  51.8810 296.7768 0003164 359.8807 162.8213 15.35119472  1547
